# Made by eph2tle, compiled Sep 29 2024 11:19:35
# Run at Tue Oct 15 10:12:57 2024
#
#    The following TLEs (Two-Line Elements) were generated by fitting
# a numerically-integrated ephemeris,  based on the orbit given below,
# to the SDP4/SGP4 models.  Each TLE is good for the interval between
# its epoch and the epoch of the subsequent TLE (usually one day).
# The maximum deviation between the numerically integrated ephemerides
# and the TLE-based ephemeris, in kilometers,  is given for each TLE
# as the "worst residual".
#
#    This fitting is done using the 'eph2tle' code packaged with Find_Orb.
# The code has details on how the TLEs were computed :
#
#    https://github.com/Bill-Gray/find_orb/eph2tle.cpp
#
#    Be warned:  the error given is that between the numerically
# integrated ephems and the TLE model.  There will usually be at
# least some additional difference between the ephems and the actual
# motion of the satellite,  especially if the ephemerides are based
# on a short arc.  If the following orbital elements say something
# like "[based on] 10 observations 2015 Jan. 1-13",  and the TLEs
# are for 2015 May,  the extrapolation may be tenuous at best.  If
# your application requires a specific level of accuracy,  you may
# want to contact me;  I can give you some idea as to the fit of the
# underlying data (and possibly TLEs based on newer data).
#
#   You can usually find the underlying observational data,  and the
# fitted orbit,  residuals,  ephemerides,  and sometimes some comments
# about the object,  among the pages listed at
#
#    https://www.projectpluto.com/pluto/mpecs/pseudo.htm
#
#    WARNING:  for this object,  "normal" TLEs cannot be fitted.  (This
# usually means an object with an hyperbolic or nearly-parabolic orbit.)
# For this and similar cases,   an alternative model is used,  in which
# most of the traditional TLE data is replaced by six signed 8-digit hex
# numbers.  These six numbers are a state vector,  numerically integrated
# using a simplified force model.  This is necessary for objects at L2 or
# L1,  and sometimes for objects in high orbits where the SDP4/SGP4 model
# fails.  Some documentation is in 'get_el.cpp' in the source code at
# https://www.github.com/Bill-Gray/sat_code ; look for 'hex' in that file,
# with the actual integration done in 'sdp4.cpp'.  But be aware:  it's my
# own extension,  doesn't work with other code,  and is therefore used
# only when necessary.
#
#    Also,  if you use a TLE outside the "correct" time range (between
# its MJD and that of the next TLE),  all bets are off.  I've carefully
# computed and minimized the worst error over the "correct" time frame,
# but the ephemeris may (or may not) diverge wildly outside of it.
#
# Ephem range: 60598.000000 60638.000000 1.000000
# Created Tue Oct 15 10:12:53 2024
# Ephemeris start: 15 Oct 2024  0:00:00
# Ephemeris end:   24 Nov 2024  0:00:00
# Times are all TDT
# Positions/velocities are in equatorial J2000
# Orbital elements:  2024-182B = NORAD 61508 = Falcon Heavy-011 Stage 2
#    Perigee 2024 Oct 14.7163 +/- 0.00538 TT = 17:11:29 (JD 2460598.2163)
# Epoch 2024 Oct 15.0 TT = JDT 2460598.5                           Find_Orb
# q  6592.3886 +/- 8.62               (J2000 equator)
# H   25.72 G 0.15                    Peri.  302.8875 +/- 0.37
#                                     Node    63.3446 +/- 0.16
# e   1.697390 +/- 0.0128             Incl.   32.9627 +/- 0.037
# From 36 observations 2024 Oct. 15 (2.2 hr); mean residual 0".288
#
# 1 NoradU COSPAR   Epoch.epoch     dn/dt/2  d2n/dt2/6 BSTAR    T El# C
# 2 NoradU Inclina RAAscNode Eccent  ArgPeri MeanAno  MeanMotion Rev# C

# Worst residual: 12.97 km
# MJD 60598.000000 (2024 Oct 15  0:00)
2024-182B = NORAD 61508 = Falcon Heavy-011 Stage 2
1 61508U 24182B   24288.99919926 -001H3ESF +0024WLKL +001GS5LPH 24807
2 61508                          -000M262T +000R8B6Z +000KKN9U     06

# Worst residual: 10.32 km
# MJD 60599.000000 (2024 Oct 16  0:00)
2024-182B = NORAD 61508 = Falcon Heavy-011 Stage 2
1 61508U 24182B   24289.99919926 -006MZEVW +008HKZMJ +0069VFMMH 24801
2 61508                          -000LB0K7 +000Q6BYL +000JTM5S     01

# Worst residual: 2.37 km
# MJD 60600.000000 (2024 Oct 17  0:00)
2024-182B = NORAD 61508 = Falcon Heavy-011 Stage 2
1 61508U 24182B   24290.99919926 -00BQKONA +00EQXVRP +00B0JXE8H 24802
2 61508                          -000L7MCV +000Q0I8S +000JPCUY     08

# Worst residual: 1.69 km
# MJD 60601.000000 (2024 Oct 18  0:00)
2024-182B = NORAD 61508 = Falcon Heavy-011 Stage 2
1 61508U 24182B   24291.99919926 -00GTOPPR +00KZAES1 +00FQI4SXH 24800
2 61508                          -000L6GOJ +000PX7XP +000JN0PL     06

# Worst residual: 1.53 km
# MJD 60602.000000 (2024 Oct 19  0:00)
2024-182B = NORAD 61508 = Falcon Heavy-011 Stage 2
1 61508U 24182B   24292.99919926 -00LWLFPW +00R6X5D4 +00KFY92IH 24802
2 61508                          -000L5SRT +000PUEGC +000JL2FO     00

# Worst residual: 1.68 km
# MJD 60603.000000 (2024 Oct 20  0:00)
2024-182B = NORAD 61508 = Falcon Heavy-011 Stage 2
1 61508U 24182B   24293.99919926 -00QZCMV1 +00XDVOET +00P4XQF6H 24808
2 61508                          -000L54SR +000PRKUU +000JJ4ZF     06

# Worst residual: 2.12 km
# MJD 60604.000000 (2024 Oct 21  0:00)
2024-182B = NORAD 61508 = Falcon Heavy-011 Stage 2
1 61508U 24182B   24294.99919926 -00W1X9BC +013K5A46 +00TTG787H 24809
2 61508                          -000L491C +000POMEY +000JH4AY     01

# Worst residual: 2.74 km
# MJD 60605.000000 (2024 Oct 22  0:00)
2024-182B = NORAD 61508 = Falcon Heavy-011 Stage 2
1 61508U 24182B   24295.99919926 -01148WJM +019PON5Q +00YHGP7DH 24805
2 61508                          -000L31FB +000PLI80 +000JEZ6N     01

# Worst residual: 3.36 km
# MJD 60606.000000 (2024 Oct 23  0:00)
2024-182B = NORAD 61508 = Falcon Heavy-011 Stage 2
1 61508U 24182B   24296.99919926 -01668F6A +01FUGFB4 +0134Y4VTH 24804
2 61508                          -000L1FM8 +000PI8QY +000JCPH2     02

# Worst residual: 3.85 km
# MJD 60607.000000 (2024 Oct 24  0:00)
2024-182B = NORAD 61508 = Falcon Heavy-011 Stage 2
1 61508U 24182B   24297.99919926 -01B7S7SI +01LYFGZB +017RVFK9H 24804
2 61508                          -000KZE5M +000PEUZ7 +000JABFS     05

# Worst residual: 4.18 km
# MJD 60608.000000 (2024 Oct 25  0:00)
2024-182B = NORAD 61508 = Falcon Heavy-011 Stage 2
1 61508U 24182B   24298.99919926 -01G8SEO9 +01S1KVZJ +01CE7LODH 24800
2 61508                          -000KWW2A +000PBE2I +000J7TIF     04

# Worst residual: 4.39 km
# MJD 60609.000000 (2024 Oct 26  0:00)
2024-182B = NORAD 61508 = Falcon Heavy-011 Stage 2
1 61508U 24182B   24299.99919926 -01L94WWD +01Y3W2HR +01GZXRRXH 24804
2 61508                          -000KTWMI +000P7V91 +000J587D     00

# Worst residual: 4.58 km
# MJD 60610.000000 (2024 Oct 27  0:00)
2024-182B = NORAD 61508 = Falcon Heavy-011 Stage 2
1 61508U 24182B   24300.99919926 -01Q8PI54 +0245CPEU +01LL16ZFH 24803
2 61508                          -000KQFAL +000P4BS2 +000J2K28     01

# Worst residual: 4.81 km
# MJD 60611.000000 (2024 Oct 28  0:00)
2024-182B = NORAD 61508 = Falcon Heavy-011 Stage 2
1 61508U 24182B   24301.99919926 -01V7DTVC +02A5YSMI +01Q5H99JH 24806
2 61508                          -000KMFN4 +000P0SXQ +000IZTNM     07

# Worst residual: 5.10 km
# MJD 60612.000000 (2024 Oct 29  0:00)
2024-182B = NORAD 61508 = Falcon Heavy-011 Stage 2
1 61508U 24182B   24302.99919926 -02051GCR +02G5QN5H +01UP9HLBH 24808
2 61508                          -000KHXCR +000OXC0O +000IX1KO     04

# Worst residual: 5.45 km
# MJD 60613.000000 (2024 Oct 30  0:00)
2024-182B = NORAD 61508 = Falcon Heavy-011 Stage 2
1 61508U 24182B   24303.99919926 -0251JVMV +02M4OV8D +01Z8DK1QH 24801
2 61508                          -000KCW8C +000OTYBM +000IU8ER     09

# Worst residual: 5.83 km
# MJD 60614.000000 (2024 Oct 31  0:00)
2024-182B = NORAD 61508 = Falcon Heavy-011 Stage 2
1 61508U 24182B   24304.99919926 -029WSKJ1 +02S2UE95 +023QT9TJH 24804
2 61508                          -000K7C6T +000OQP4M +000IREQZ     00

# Worst residual: 6.20 km
# MJD 60615.000000 (2024 Nov  1  0:00)
2024-182B = NORAD 61508 = Falcon Heavy-011 Stage 2
1 61508U 24182B   24305.99919926 -02EQMZLM +02Y08GID +0288KL37H 24801
2 61508                          -000K1993 +000ONLOB +000IOL5P     00

# Worst residual: 6.54 km
# MJD 60616.000000 (2024 Nov  2  0:00)
2024-182B = NORAD 61508 = Falcon Heavy-011 Stage 2
1 61508U 24182B   24306.99919926 -02JIYM2L +033WWKQS +02CPNKSUH 24804
2 61508                          -000JUNJL +000OKP53 +000ILS69     06

# Worst residual: 6.84 km
# MJD 60617.000000 (2024 Nov  3  0:00)
2024-182B = NORAD 61508 = Falcon Heavy-011 Stage 2
1 61508U 24182B   24307.99919926 -02O9MYK3 +039SWJJB +02H62GCHH 24809
2 61508                          -000JNJ9D +000OI0MF +000IJ0AB     02

# Worst residual: 7.13 km
# MJD 60618.000000 (2024 Nov  4  0:00)
2024-182B = NORAD 61508 = Falcon Heavy-011 Stage 2
1 61508U 24182B   24308.99919926 -02SYJLLL +03FOAEK3 +02LLTJ60H 24800
2 61508                          -000JFWN9 +000OFL4J +000IG9XV     05

# Worst residual: 7.40 km
# MJD 60619.000000 (2024 Nov  5  0:00)
2024-182B = NORAD 61508 = Falcon Heavy-011 Stage 2
1 61508U 24182B   24309.99919926 -02XLK5YO +03LJ4FRG +02Q0X8BNH 24809
2 61508                          -000J7RYS +000ODFK8 +000IDLJ5     03

# Worst residual: 7.66 km
# MJD 60620.000000 (2024 Nov  6  0:00)
2024-182B = NORAD 61508 = Falcon Heavy-011 Stage 2
1 61508U 24182B   24310.99919926 -0326KCOT +03RDH4K8 +02UFE228H 24807
2 61508                          -000IZ5H8 +000OBKQV +000IAZEG     06

# Worst residual: 7.92 km
# MJD 60621.000000 (2024 Nov  7  0:00)
2024-182B = NORAD 61508 = Falcon Heavy-011 Stage 2
1 61508U 24182B   24311.99919926 -036PFWWQ +03X7F50D +02YT8LDKH 24802
2 61508                          -000IQ1EK +000OA1EG +000I8FUD     03

